SWAS                    
1 25560U 98071A   26068.53487068  .00004636  00000+0  29986-3 0  9991
2 25560  69.8952 124.3662 0004099  14.3215 345.8065 15.08888192482231
STARLINK-3873           
1 52467U 22049S   26068.26757431 -.00000550  00000+0 -16498-4 0  9991
2 52467  53.2168  61.0150 0001338  91.4534 268.6611 15.08831710212183
